{
    "links": {
        "self": "http://www.neowsapp.com/rest/v1/neo/3653921?api_key=iIulBulltgU6a56xZRHN4H3l9WmuAYTsLGpBGhQ2"
    },
    "id": "3653921",
    "neo_reference_id": "3653921",
    "name": "(2013 WX44)",
    "designation": "2013 WX44",
    "nasa_jpl_url": "http://ssd.jpl.nasa.gov/sbdb.cgi?sstr=3653921",
    "absolute_magnitude_h": 25.8,
    "estimated_diameter": {
        "kilometers": {
            "estimated_diameter_min": 0.0183888672,
            "estimated_diameter_max": 0.0411187571
        },
        "meters": {
            "estimated_diameter_min": 18.388867207,
            "estimated_diameter_max": 41.1187571041
        },
        "miles": {
            "estimated_diameter_min": 0.0114263088,
            "estimated_diameter_max": 0.0255500032
        },
        "feet": {
            "estimated_diameter_min": 60.3309310875,
            "estimated_diameter_max": 134.9040630575
        }
    },
    "is_potentially_hazardous_asteroid": false,
    "close_approach_data": [
        {
            "close_approach_date": "2013-11-23",
            "close_approach_date_full": "2013-Nov-23 02:35",
            "epoch_date_close_approach": 1385174100000,
            "relative_velocity": {
                "kilometers_per_second": "11.1036028631",
                "kilometers_per_hour": "39972.9703072442",
                "miles_per_hour": "24837.6492445207"
            },
            "miss_distance": {
                "astronomical": "0.0208249089",
                "lunar": "8.1008895621",
                "kilometers": "3115362.014384043",
                "miles": "1935796.1916760734"
            },
            "orbiting_body": "Earth"
        }
    ],
    "orbital_data": {
        "orbit_id": "9",
        "orbit_determination_date": "2017-04-06 08:43:29",
        "first_observation_date": "2013-11-27",
        "last_observation_date": "2013-12-10",
        "data_arc_in_days": 13,
        "observations_used": 30,
        "orbit_uncertainty": "7",
        "minimum_orbit_intersection": ".0148282",
        "jupiter_tisserand_invariant": "2.946",
        "epoch_osculation": "2459000.5",
        "eccentricity": ".6642073953521928",
        "semi_major_axis": "2.81337855387454",
        "inclination": "3.912223813796837",
        "ascending_node_longitude": "252.1381729499346",
        "orbital_period": "1723.616669865843",
        "perihelion_distance": ".9447117124658131",
        "perihelion_argument": "139.7653288633335",
        "aphelion_distance": "4.682045395283267",
        "perihelion_time": "2458324.402965495690",
        "mean_anomaly": "141.2117535626388",
        "mean_motion": ".2088631459035613",
        "equinox": "J2000",
        "orbit_class": {
            "orbit_class_type": "APO",
            "orbit_class_description": "Near-Earth asteroid orbits which cross the Earth’s orbit similar to that of 1862 Apollo",
            "orbit_class_range": "a (semi-major axis) > 1.0 AU; q (perihelion) < 1.017 AU"
        }
    },
    "is_sentry_object": false
}